{
"type": "FeatureCollection",
"name": "Teniszpalyak",
"crs": { "type": "name", "properties": { "name": "urn:ogc:def:crs:OGC:1.3:CRS84" } },
"features": [
{ "type": "Feature", "properties": { "city": "Budapest XI. kerület", "address": "Bartók Béla út 63-65. (bejárat a Fadrusz-Bartók B sarokról)", "email": "info@parktenisz.hu", "count": "12", "name": "Park Teniszklub", "description": "3400-8600 Ft/óra", "surface": "salak", "access": "publikus", "website": "http://www.parktenisz.hu/", "phone": "06 1279 0930", "opening_hours": "6-22" }, "geometry": { "type": "Point", "coordinates": [ 19.043123921010853, 47.477368112552391 ] } },
{ "type": "Feature", "properties": { "city": "Budapest II. kerület", "address": "1026 Budapest,\nPasaréti út 11-13.", "email": "1026 Budapest II. kerület Pasaréti út 11-13.\n", "count": "10", "name": "Pasarét Teniszcentrum\n", "description": "4000-9500 Ft/óra", "surface": "salak", "access": "publikus", "website": "https://pasatenisz.hu/", "phone": "+36-1/212-5246\n", "opening_hours": "H-V 6-22\n" }, "geometry": { "type": "Point", "coordinates": [ 19.009678593387694, 47.51161590070015 ] } },
{ "type": "Feature", "properties": { "city": null, "address": null, "email": null, "count": "pitch", "name": null, "description": null, "surface": null, "access": null, "website": null, "phone": null, "opening_hours": null }, "geometry": { "type": "Point", "coordinates": [ 19.035011235106428, 47.458016580814657 ] } },
{ "type": "Feature", "properties": { "city": "Budapest XI. kerület", "address": "1115 Budapest XI. kerület Tétényi út 12-16.\n", "email": "torok.erzsebet@chello.hu\n", "count": "3", "name": "Szent Imre Kórház\n", "description": "-", "surface": "salak", "access": null, "website": "-", "phone": "+36-20/395-2118\n", "opening_hours": "H-V: 6-20\n" }, "geometry": { "type": "Point", "coordinates": [ 19.035670790720893, 47.470199899721607 ] } },
{ "type": "Feature", "properties": { "city": "Budapest XI. kerület", "address": "1112 Budapest XI. kerület Kánai út 2.\n", "email": "joci666@gmail.com\n", "count": "7", "name": "Sport11 Sport- Szabadidő- és Rendezvényközpont\n", "description": "-", "surface": "salak", "access": "publikus", "website": "https://sport.ujbuda.hu/sport11", "phone": "+36-30/904-9249\n", "opening_hours": "H-V: 6-22\n" }, "geometry": { "type": "Point", "coordinates": [ 19.000591362249565, 47.447190367963486 ] } },
{ "type": "Feature", "properties": { "city": "Budapest XV. kerület", "address": "1157 Budapest XV. kerület Bánkút u. 71./Sárfű utca 6-10.\n", "email": "balint.tennis@gmail.com\n", "count": "5", "name": "Palotai Testvériség Tenisz Egyesület\n", "description": "-", "surface": "salak", "access": "publikus", "website": "http://www.palotaisolymok.hu/", "phone": "+36-20/929-3125, +36-70/319-9841, +36-1/414-0135,\n", "opening_hours": "H-V: 6-22\n" }, "geometry": { "type": "Point", "coordinates": [ 19.1352938, 47.54960485 ] } },
{ "type": "Feature", "properties": { "city": "Budapest I. kerület", "address": "Krisztina körút 6112 hrsz", "email": "tabansc@gmail.com, tabantenisz@gmail.com, karacsony.mihaly@gmail.com\n", "count": "9", "name": "Tabáni tenisz center", "description": "5000-8000 Ft/óra", "surface": "salak", "access": "publikus", "website": "http://www.tabantenisz.hu/", "phone": "0612024376", "opening_hours": "6-22" }, "geometry": { "type": "Point", "coordinates": [ 19.039276829171065, 47.492615067330703 ] } },
{ "type": "Feature", "properties": { "city": "Budapest II. kerület", "address": "1025 Budapest II. kerület Törökvész út 48-54.\n", "email": "litoadam@gmail.com\n", "count": "1", "name": "Rózsadomb Tenisz Club\n", "description": "-", "surface": "salak", "access": "részben publikus", "website": "-", "phone": "+36-30/374-7744\n", "opening_hours": "A gimnázium számára fenntartott idősávban nem látogatható.\n" }, "geometry": { "type": "Point", "coordinates": [ 19.0104398, 47.52395505 ] } },
{ "type": "Feature", "properties": { "city": "Budapest II. kerület", "address": "1029 Budapest II. kerület Feketefej u. 2-4.\n", "email": "info@petnehazy-clubhotel.hu\n", "count": "4", "name": "Petneházy Clubhotel\n", "description": "2900-4900 Ft/óra", "surface": "salak", "access": "publikus", "website": "https://petnehazy-clubhotel.hu/sport", "phone": "+36-1/391-8010, +36-1/391-8018\n", "opening_hours": "8-20" }, "geometry": { "type": "Point", "coordinates": [ 18.93874835, 47.53928835 ] } },
{ "type": "Feature", "properties": { "city": null, "address": null, "email": null, "count": "pitch", "name": null, "description": null, "surface": null, "access": null, "website": null, "phone": null, "opening_hours": null }, "geometry": { "type": "Point", "coordinates": [ 19.0771371, 47.523739250000013 ] } },
{ "type": "Feature", "properties": { "city": null, "address": null, "email": null, "count": "pitch", "name": null, "description": null, "surface": null, "access": null, "website": null, "phone": null, "opening_hours": null }, "geometry": { "type": "Point", "coordinates": [ 19.026609623090302, 47.448342682530416 ] } },
{ "type": "Feature", "properties": { "city": "Budapest IV. kerület", "address": "Váci út 102.", "email": "akos.dienes@vizmuvek.hu", "count": "3", "name": "Vízművek teniszpályái", "description": "-", "surface": "salak, kemény", "access": "publikus", "website": "http://www.tenisz-palya.hu/teniszpalya-katalogus/ad/teniszpalya,2/vizmuvek-palyak,198", "phone": "+36-30/330-4429, +36-1/465-2526", "opening_hours": "8-20" }, "geometry": { "type": "Point", "coordinates": [ 19.07907985, 47.5746782 ] } },
{ "type": "Feature", "properties": { "city": "Budapest IV. kerület", "address": "Váci út 102.", "email": "akos.dienes@vizmuvek.hu", "count": "4", "name": "Vízművek teniszpályái", "description": "-", "surface": "salak, kemény", "access": "publikus", "website": "http://www.tenisz-palya.hu/teniszpalya-katalogus/ad/teniszpalya,2/vizmuvek-palyak,198", "phone": "+36-30/330-4429, +36-1/465-2526", "opening_hours": "8-20" }, "geometry": { "type": "Point", "coordinates": [ 19.079750281141212, 47.575418364758463 ] } },
{ "type": "Feature", "properties": { "city": null, "address": null, "email": null, "count": "pitch", "name": null, "description": null, "surface": null, "access": null, "website": null, "phone": null, "opening_hours": null }, "geometry": { "type": "Point", "coordinates": [ 19.03776435, 47.4387086 ] } },
{ "type": "Feature", "properties": { "city": "Budapest XIII. kerület", "address": "1138 Budapest XIII. kerület Népfürdő u. 18-20.\n", "email": "sandor.kiss@elmu.hu, istvan.pribek@elmu.hu\n", "count": "7", "name": "Budapesti Elektromos Sportegyesület\n", "description": "-", "surface": "salak", "access": "publikus", "website": "-", "phone": "+36-1/238-2327, +36-20/923-5817\n", "opening_hours": "H-V: 6-22\n" }, "geometry": { "type": "Point", "coordinates": [ 19.058006086394247, 47.532546480834391 ] } },
{ "type": "Feature", "properties": { "city": "Budapest XI. kerület", "address": "1112 Budapest XI. kerület Kapolcs u. 2.\n", "email": "tamas.sabo@yahoo.com\n", "count": "6", "name": "Grand Slam Park Alfa Tenisziskola\n", "description": "-", "surface": "salak", "access": "publikus", "website": "http://grandslampark.hu/", "phone": "+36-30/683-0607, +36-20/328-7156\n", "opening_hours": "H-V: 6-22\n" }, "geometry": { "type": "Point", "coordinates": [ 19.007844287993461, 47.44479652815761 ] } },
{ "type": "Feature", "properties": { "city": null, "address": null, "email": null, "count": "pitch", "name": null, "description": null, "surface": null, "access": null, "website": null, "phone": null, "opening_hours": null }, "geometry": { "type": "Point", "coordinates": [ 19.054793360938135, 47.471778267345812 ] } },
{ "type": "Feature", "properties": { "city": "Budapest XI. kerület", "address": "1117 Budapest XI. kerület Bogdánfy Ödön u. 10/a és 10/b\n", "email": "huszarandras27@t-online.hu\n", "count": "5", "name": "ELTE Sportcentrum\n", "description": "1900-3300 Ft/óra", "surface": "salak", "access": "publikus", "website": "https://sporttelep.bmesport.hu/tracks/7", "phone": "+36-20/328-9977, +36-1/209-0618, +36-20/262-4469\n", "opening_hours": "H-V: 6-22\n" }, "geometry": { "type": "Point", "coordinates": [ 19.058421380875739, 47.474143375030572 ] } },
{ "type": "Feature", "properties": { "city": "Budapest XXII. kerület", "address": "1222 Budapest XXII. kerület Komáromi u. 8.\n", "email": "andrea.borsanyi@gmail.com\n", "count": "7", "name": "Budafoki Tenisz Centrum\n", "description": "-", "surface": "salak", "access": "publikus", "website": "-", "phone": "+36-30/326-7772\n", "opening_hours": "H-V: 6-22\n" }, "geometry": { "type": "Point", "coordinates": [ 19.025866867451018, 47.421391971386385 ] } },
{ "type": "Feature", "properties": { "city": "Budapest XIV. kerület", "address": "1143 Budapest XIV. kerület Róna u. 25.\n", "email": "tamas@pillangotenisz.hu; grosz.zoltan73@gmail.com\n", "count": "4", "name": "Pillangó Tenisz Klub", "description": "2600-3500 Ft/óra", "surface": "salak", "access": "publikus", "website": "https://www.pillangotenisz.hu/", "phone": "+36-30/280-6179, +36-30/754-8010, +36-70/578-0945\n", "opening_hours": "H-V: 7-22\n" }, "geometry": { "type": "Point", "coordinates": [ 19.123559754875831, 47.503960328421805 ] } },
{ "type": "Feature", "properties": { "city": null, "address": null, "email": null, "count": "pitch", "name": null, "description": null, "surface": "asphalt", "access": null, "website": null, "phone": null, "opening_hours": null }, "geometry": { "type": "Point", "coordinates": [ 19.017787817894622, 47.507913998195235 ] } },
{ "type": "Feature", "properties": { "city": "Budapest XIV. kerület", "address": "1149 Budapest XIV. kerület Róna utca 86-100.\n", "email": "titkarsag@postassport.hu\n", "count": "9", "name": "Postás Sportcentrum\n", "description": "1990 - Ft/óra", "surface": "kemény", "access": "publikus", "website": "http://www.postassport.hu/", "phone": "+36-1/252-2555, +36-1/383-5722, +36-30/397-8401 és +36-20/934-8060,\n", "opening_hours": "H-V: 6-22\n" }, "geometry": { "type": "Point", "coordinates": [ 19.1160816, 47.508857250000013 ] } },
{ "type": "Feature", "properties": { "city": "Budapest XIV. kerület", "address": "Tengerszem utca 62.", "email": "tengerszemtenisz@gmail.com", "count": "5", "name": "Tengerszem Teniszklub", "description": "1300-5000 Ft/óra", "surface": "salak", "access": "publikus", "website": "http://tengerszemtenisz.hu/", "phone": " +36-1/221-83-97", "opening_hours": "8-22" }, "geometry": { "type": "Point", "coordinates": [ 19.099997312154997, 47.532918877047436 ] } },
{ "type": "Feature", "properties": { "city": "Budapest XVI. kerület", "address": "1165 Budapest XVI. kerület Bökényföldi út 27.\n", "email": "mlawntc@gmail.com\n", "count": "6", "name": "Mátyásföldi Lawn Tennis Club\n", "description": "-", "surface": "salakos\n", "access": "publikus", "website": "http://www.mltc.hu/", "phone": "+36-30/383-3303, +36-1/407-0175, +36-20/934-7242\n", "opening_hours": "H-V: 7-22\n" }, "geometry": { "type": "Point", "coordinates": [ 19.205147484323362, 47.509374752356635 ] } },
{ "type": "Feature", "properties": { "city": null, "address": null, "email": null, "count": "1", "name": "Aquaworld", "description": "Belső fizető vendégeknek", "surface": "tartan", "access": "privát", "website": null, "phone": null, "opening_hours": null }, "geometry": { "type": "Point", "coordinates": [ 19.113000367307023, 47.601937490738223 ] } },
{ "type": "Feature", "properties": { "city": "Budapest X. kerület", "address": "1106 Budapest X. kerület Gyógyszergyári út 3.\n", "email": "szlaby.andras@gmail.com\n", "count": "5", "name": "EGIS Sportegyesület\n", "description": "-", "surface": "salak", "access": "publikus", "website": "http://esporte.hu/index.html", "phone": "+36-30/385-9759, +36-1/265-5804\n", "opening_hours": "H-V: 6-20\n" }, "geometry": { "type": "Point", "coordinates": [ 19.151493220793707, 47.500664314819048 ] } },
{ "type": "Feature", "properties": { "city": null, "address": null, "email": null, "count": "pitch", "name": null, "description": null, "surface": null, "access": null, "website": null, "phone": null, "opening_hours": null }, "geometry": { "type": "Point", "coordinates": [ 19.160660783511329, 47.510992644316744 ] } },
{ "type": "Feature", "properties": { "city": null, "address": null, "email": null, "count": "pitch", "name": null, "description": null, "surface": null, "access": null, "website": null, "phone": null, "opening_hours": null }, "geometry": { "type": "Point", "coordinates": [ 19.072672041887554, 47.417795816791049 ] } },
{ "type": "Feature", "properties": { "city": null, "address": null, "email": null, "count": "pitch", "name": null, "description": null, "surface": null, "access": null, "website": null, "phone": null, "opening_hours": null }, "geometry": { "type": "Point", "coordinates": [ 19.043216771133039, 47.516571502846126 ] } },
{ "type": "Feature", "properties": { "city": null, "address": null, "email": null, "count": "pitch", "name": null, "description": null, "surface": "clay", "access": "private", "website": null, "phone": null, "opening_hours": null }, "geometry": { "type": "Point", "coordinates": [ 18.998026065989073, 47.467564319399322 ] } },
{ "type": "Feature", "properties": { "city": null, "address": null, "email": null, "count": "pitch", "name": null, "description": null, "surface": null, "access": null, "website": null, "phone": null, "opening_hours": null }, "geometry": { "type": "Point", "coordinates": [ 19.04036801110913, 47.479785419124845 ] } },
{ "type": "Feature", "properties": { "city": null, "address": null, "email": null, "count": "pitch", "name": null, "description": null, "surface": null, "access": null, "website": null, "phone": null, "opening_hours": null }, "geometry": { "type": "Point", "coordinates": [ 19.035073392165128, 47.45081425008722 ] } },
{ "type": "Feature", "properties": { "city": "Budapest II. kerület", "address": "1021 Budapest II. kerület Tárogató út 2-4.\n", "email": "-", "count": "2", "name": "IBS teniszpályák\n", "description": "-", "surface": "kemény", "access": "részben publikus", "website": "https://server.budenznet.edu.hu/bjaig/", "phone": "+36-30/517-5483\n", "opening_hours": "8-20" }, "geometry": { "type": "Point", "coordinates": [ 18.98925305, 47.5206345 ] } },
{ "type": "Feature", "properties": { "city": "Budapest II. kerület", "address": "1021 Budapest II. kerület Budakeszi út 73/c\n", "email": "info@kulkerpark.hu\n", "count": "4", "name": "Külkereskedelmi Sport-, és Szabadidőpark\n", "description": "2200-2800 Ft/óra", "surface": "salak", "access": "publikus", "website": "http://www.kulkerpark.hu/wp/", "phone": "+36-1/200-1898\n", "opening_hours": "6-20" }, "geometry": { "type": "Point", "coordinates": [ 18.963711017301122, 47.525999489388838 ] } },
{ "type": "Feature", "properties": { "city": "Budapest VIII. kerület", "address": "1087 Budapest VIII. kerület Sport utca 2.\n", "email": "info@bkvsc.hu, greenzoo@bkvelore.hu, info@teniszletesitmeny.hu\n", "count": "8\n", "name": "BKV Előre SC", "description": "-", "surface": "salak", "access": "publikus", "website": "https://www.bkveloresc.hu/tenisz/index.htm", "phone": "+36-1/461-6500, +36-1/313-2069\n", "opening_hours": "H-V: 7-22\n" }, "geometry": { "type": "Point", "coordinates": [ 19.107596932992632, 47.492701583502679 ] } },
{ "type": "Feature", "properties": { "city": null, "address": null, "email": null, "count": "sports_centre", "name": "", "description": null, "surface": null, "access": null, "website": null, "phone": null, "opening_hours": null }, "geometry": { "type": "Point", "coordinates": [ 19.113272850292084, 47.476040425535643 ] } },
{ "type": "Feature", "properties": { "city": null, "address": null, "email": null, "count": "pitch", "name": null, "description": null, "surface": "clay", "access": null, "website": null, "phone": null, "opening_hours": null }, "geometry": { "type": "Point", "coordinates": [ 19.018469367637113, 47.502712835065893 ] } },
{ "type": "Feature", "properties": { "city": null, "address": null, "email": null, "count": "pitch", "name": null, "description": null, "surface": null, "access": null, "website": null, "phone": null, "opening_hours": null }, "geometry": { "type": "Point", "coordinates": [ 19.02590875, 47.4934363 ] } },
{ "type": "Feature", "properties": { "city": "Budapest XII. kerület", "address": "1122 Budapest XII. kerület Szamos u. 2/c.\n", "email": "csabababos@mail.datanet.hu\n", "count": "9", "name": "Budai Tenisz Centrum\n", "description": "6000-8000 Ft/óra", "surface": "salak", "access": "publikus", "website": "https://budapestteniszcentrum.com/", "phone": "+36-30/226-1510, +36-30/226-1890\n", "opening_hours": "H-V: 6-22\n" }, "geometry": { "type": "Point", "coordinates": [ 19.019501821427347, 47.506194380012253 ] } },
{ "type": "Feature", "properties": { "city": "Budapest XII. kerület", "address": "1122 Budapest XII. kerület Városmajor u. 63-69.\n", "email": "vtctenisz@freemail.hu\n", "count": "7", "name": "Városmajori Tenisz Club\n", "description": "-", "surface": "salak", "access": "publikus", "website": "https://www.facebook.com/vtctenisz/", "phone": "+36-30/248-9049, +36-1/202-5337\n", "opening_hours": "H-P 7-22, Szo, V: 7-20\n" }, "geometry": { "type": "Point", "coordinates": [ 19.0125607, 47.50859915 ] } },
{ "type": "Feature", "properties": { "city": "Budapest XI. kerület", "address": "1118 Budapest XI. kerület Schweidel utca 4-6.\n", "email": "vcsabane7777555@007.hu\n", "count": "2", "name": "Honvéd Budai SE\n", "description": "-", "surface": "egyéb", "access": "?", "website": "https://honved.hu/", "phone": "+36-20/433-9821, +36-1/314-5377, +36-1/372-9011, +36-1/372-9111/24401\n", "opening_hours": "H-V: 8-20\n" }, "geometry": { "type": "Point", "coordinates": [ 19.028595405538109, 47.485426308255924 ] } },
{ "type": "Feature", "properties": { "city": null, "address": null, "email": null, "count": "pitch", "name": null, "description": null, "surface": null, "access": null, "website": null, "phone": null, "opening_hours": null }, "geometry": { "type": "Point", "coordinates": [ 19.02672635098001, 47.476781383871312 ] } },
{ "type": "Feature", "properties": { "city": "Budapest XI. kerület", "address": "1114 Budapest XI. kerület Hamzsabégi út 64.\n", "email": "nttenisz@hotmail.com, kissandras60@gmail.com\n", "count": "4", "name": "Poén Teniszklub", "description": "-", "surface": "salak", "access": "publikus", "website": "https://foursquare.com/v/po%C3%A9n-teniszklub/4d1a3bea302da1cd113dd093", "phone": "+36-1/381-0070\n", "opening_hours": "H-Cs: 6-22, P: 6-20, Szo, V: 8-20\n" }, "geometry": { "type": "Point", "coordinates": [ 19.02334858527826, 47.47274553044921 ] } },
{ "type": "Feature", "properties": { "city": null, "address": null, "email": null, "count": "pitch", "name": null, "description": null, "surface": null, "access": null, "website": null, "phone": null, "opening_hours": null }, "geometry": { "type": "Point", "coordinates": [ 18.947429419401374, 47.533733640614059 ] } },
{ "type": "Feature", "properties": { "city": "Budapest X. kerület", "address": "Kismartoni u. 1-3.", "email": "bontobee86@gmail.com,info@abristennis.hu", "count": "9", "name": "Ábris Teniszakadémia ésSportközpont", "description": "-", "surface": "salak", "access": "publikus", "website": "-", "phone": "+36-30/382-3303, +36-1/433-2650 és +36-30/263-0328", "opening_hours": "6-22" }, "geometry": { "type": "Point", "coordinates": [ 19.112866127869189, 47.482797029004431 ] } },
{ "type": "Feature", "properties": { "city": "Budapest X. kerület", "address": "1101 Budapest X. kerület Vajda Péter u.\n", "email": "dundler.jozsef@upcmail.hu\n", "count": "15", "name": "Építők teniszközpont\n", "description": "2600-3200 Ft/óra", "surface": "salak", "access": "publikus", "website": "https://epitoktk.eoldal.hu/", "phone": "+36-30/932-6398\n", "opening_hours": "6-22" }, "geometry": { "type": "Point", "coordinates": [ 19.107766452308915, 47.478967865789002 ] } },
{ "type": "Feature", "properties": { "city": null, "address": null, "email": null, "count": "pitch", "name": null, "description": null, "surface": "asphalt", "access": null, "website": null, "phone": null, "opening_hours": null }, "geometry": { "type": "Point", "coordinates": [ 19.086626617780155, 47.473192201853514 ] } },
{ "type": "Feature", "properties": { "city": null, "address": null, "email": null, "count": "pitch", "name": null, "description": null, "surface": "clay", "access": null, "website": null, "phone": null, "opening_hours": null }, "geometry": { "type": "Point", "coordinates": [ 19.088556066116013, 47.507795901472903 ] } },
{ "type": "Feature", "properties": { "city": "Budapest II. kerület", "address": "Budapest, Marczibányi tér 16, 1022", "email": "matchpoint@t-online.hu\n", "count": "2-5?", "name": "Match-Point Tennis Club\n", "description": "4800-6300 Ft./óra", "surface": "salak", "access": "publikus", "website": "matchpoint@t-online.hu\n", "phone": "+36-1/214-5433, +36-20/937-0670 és +36-20/9380-313\n", "opening_hours": "H-P 7-22, Szo: 7-20, V: 8-21\n" }, "geometry": { "type": "Point", "coordinates": [ 19.021724652125616, 47.512620629766786 ] } },
{ "type": "Feature", "properties": { "city": null, "address": null, "email": null, "count": "pitch", "name": null, "description": null, "surface": null, "access": null, "website": null, "phone": null, "opening_hours": null }, "geometry": { "type": "Point", "coordinates": [ 19.1113626, 47.4933694 ] } },
{ "type": "Feature", "properties": { "city": null, "address": null, "email": null, "count": "pitch", "name": null, "description": null, "surface": "clay", "access": null, "website": null, "phone": null, "opening_hours": null }, "geometry": { "type": "Point", "coordinates": [ 19.113628280788536, 47.493069774120023 ] } },
{ "type": "Feature", "properties": { "city": null, "address": null, "email": null, "count": "pitch", "name": null, "description": null, "surface": null, "access": null, "website": null, "phone": null, "opening_hours": null }, "geometry": { "type": "Point", "coordinates": [ 19.117776598698185, 47.494246098882513 ] } },
{ "type": "Feature", "properties": { "city": "Budapest III. kerület", "address": "1039 Budapest III. kerület Királyok útja 105.\n", "email": "markyjeno@t-online.hu, rta@rta.hu\n", "count": "8", "name": "Római Teniszakadémia\n", "description": "1900-7000 Ft/óra", "surface": "salak", "access": "publikus", "website": "https://www.rta.hu/teniszpalya-berles.html", "phone": "+36-1/240-8616, +36-70/335-3165\n", "opening_hours": "6-22" }, "geometry": { "type": "Point", "coordinates": [ 19.065901563496258, 47.58437487381881 ] } },
{ "type": "Feature", "properties": { "city": null, "address": null, "email": null, "count": "pitch", "name": null, "description": null, "surface": null, "access": null, "website": null, "phone": null, "opening_hours": null }, "geometry": { "type": "Point", "coordinates": [ 19.000380993153765, 47.510095714952747 ] } },
{ "type": "Feature", "properties": { "city": "Budapest II. kerület", "address": "1028 Budapest II. kerület Kővári u. 1-7.\n", "email": "csoriatti@freemail.hu\n", "count": "4", "name": "Hidegkúti Tenisz és Foci Egyesület\n", "description": "-", "surface": "salak", "access": "publikus", "website": "https://tenisz-palya.hu/teniszpalya-katalogus/ad/sportpalya-sportkozpont-szabadidokozpont,5/hidegkuti-tenisz-es-foci-egyesulet,151", "phone": "+36-70/337-8261\n", "opening_hours": "8-22" }, "geometry": { "type": "Point", "coordinates": [ 18.9684893, 47.55717915 ] } },
{ "type": "Feature", "properties": { "city": null, "address": null, "email": null, "count": "pitch", "name": null, "description": null, "surface": "asphalt", "access": null, "website": null, "phone": null, "opening_hours": null }, "geometry": { "type": "Point", "coordinates": [ 19.138141621260225, 47.456610535650512 ] } },
{ "type": "Feature", "properties": { "city": null, "address": null, "email": null, "count": "pitch", "name": "Corner TC.", "description": null, "surface": null, "access": null, "website": null, "phone": null, "opening_hours": null }, "geometry": { "type": "Point", "coordinates": [ 19.01007925, 47.51424025 ] } },
{ "type": "Feature", "properties": { "city": "Budapest II. kerület", "address": "1021 Budapest II. kerület Hárshegyi út 1.\n", "email": "rolandsportclub@gmail.com\n", "count": "1", "name": "Roland Sport Club\n", "description": "-", "surface": "egyéb", "access": "publikus", "website": "http://www.rolandsportclub.hu/", "phone": "+36-30/992-6410\n", "opening_hours": "8-22" }, "geometry": { "type": "Point", "coordinates": [ 18.974248933182693, 47.522187509300878 ] } },
{ "type": "Feature", "properties": { "city": null, "address": null, "email": null, "count": "pitch", "name": null, "description": "volt lipótmezei teniszpálya", "surface": "clay", "access": null, "website": null, "phone": null, "opening_hours": null }, "geometry": { "type": "Point", "coordinates": [ 18.9707776, 47.53344315 ] } },
{ "type": "Feature", "properties": { "city": null, "address": null, "email": null, "count": "pitch", "name": "", "description": null, "surface": null, "access": null, "website": null, "phone": null, "opening_hours": null }, "geometry": { "type": "Point", "coordinates": [ 19.222000318799374, 47.597738893401868 ] } },
{ "type": "Feature", "properties": { "city": null, "address": null, "email": null, "count": "pitch", "name": null, "description": null, "surface": null, "access": null, "website": null, "phone": null, "opening_hours": null }, "geometry": { "type": "Point", "coordinates": [ 18.9427236, 47.537507 ] } },
{ "type": "Feature", "properties": { "city": "Budapest XVII. kerület", "address": "1172 Budapest XVII. kerület Hősök tere 3.\n", "email": "optibiomedkft@gmail.com\n", "count": "4", "name": "Rákosligeti  OPTI Tenisz Club\n", "description": "-", "surface": "salak", "access": "publikus", "website": "https://optitenisz.hu/", "phone": "70/246-2370\n", "opening_hours": "H-V: 7-13 és 15-20\n" }, "geometry": { "type": "Point", "coordinates": [ 19.259268326396889, 47.489870224616332 ] } },
{ "type": "Feature", "properties": { "city": null, "address": null, "email": null, "count": "pitch", "name": null, "description": null, "surface": null, "access": null, "website": null, "phone": null, "opening_hours": null }, "geometry": { "type": "Point", "coordinates": [ 18.944057066676379, 47.525206650509723 ] } },
{ "type": "Feature", "properties": { "city": null, "address": null, "email": null, "count": "pitch", "name": null, "description": null, "surface": null, "access": null, "website": null, "phone": null, "opening_hours": null }, "geometry": { "type": "Point", "coordinates": [ 18.975953424091063, 47.51782490287713 ] } },
{ "type": "Feature", "properties": { "city": null, "address": null, "email": null, "count": "pitch", "name": null, "description": null, "surface": null, "access": null, "website": null, "phone": null, "opening_hours": null }, "geometry": { "type": "Point", "coordinates": [ 18.97698035, 47.51691345 ] } },
{ "type": "Feature", "properties": { "city": null, "address": null, "email": null, "count": "pitch", "name": null, "description": null, "surface": null, "access": null, "website": null, "phone": null, "opening_hours": null }, "geometry": { "type": "Point", "coordinates": [ 18.9979703, 47.53244065 ] } },
{ "type": "Feature", "properties": { "city": "Budapest XVII. kerület", "address": "1173 Budapest XVII. kerület Gyökér u. 18.\n", "email": "kovise@freemail.hu\n", "count": "6", "name": "Fortuna", "description": "2300-3500 Ft/óra", "surface": "salak", "access": "publikus", "website": "http://fortunatenisz.hu/", "phone": "+36-20/569-2300, +36-1/258-7146, +36-20/529-1664, +36-20/927-7195\n", "opening_hours": "H-V: 6-20\n" }, "geometry": { "type": "Point", "coordinates": [ 19.251938775713871, 47.476059658001489 ] } },
{ "type": "Feature", "properties": { "city": "Budapest XVII. kerület", "address": "1173 Budapest XVII. kerület Gyergyóalfalu u. 8.\n", "email": "kspteam2011@gmail.com\n", "count": "4", "name": "Fitness Five Gym és Teniszklub\n", "description": "2500-3300 Ft/óra", "surface": "salak", "access": "publikus", "website": "-", "phone": "+36-20/404-0771, +36-30/786-4791\n", "opening_hours": "H-P 7-22, Szo-V 8-18\n" }, "geometry": { "type": "Point", "coordinates": [ 19.268614735385867, 47.472623689210067 ] } },
{ "type": "Feature", "properties": { "city": null, "address": null, "email": null, "count": "pitch", "name": null, "description": null, "surface": null, "access": null, "website": null, "phone": null, "opening_hours": null }, "geometry": { "type": "Point", "coordinates": [ 18.981954805239585, 47.508830259393662 ] } },
{ "type": "Feature", "properties": { "city": null, "address": null, "email": null, "count": "pitch", "name": null, "description": null, "surface": null, "access": null, "website": null, "phone": null, "opening_hours": null }, "geometry": { "type": "Point", "coordinates": [ 18.9789029, 47.5020816 ] } },
{ "type": "Feature", "properties": { "city": null, "address": null, "email": null, "count": "pitch", "name": null, "description": null, "surface": null, "access": null, "website": null, "phone": null, "opening_hours": null }, "geometry": { "type": "Point", "coordinates": [ 18.9748903, 47.5075313 ] } },
{ "type": "Feature", "properties": { "city": null, "address": null, "email": null, "count": "pitch", "name": null, "description": null, "surface": null, "access": null, "website": null, "phone": null, "opening_hours": null }, "geometry": { "type": "Point", "coordinates": [ 19.001377521510559, 47.500390810184271 ] } },
{ "type": "Feature", "properties": { "city": null, "address": null, "email": null, "count": "pitch", "name": null, "description": null, "surface": null, "access": null, "website": null, "phone": null, "opening_hours": null }, "geometry": { "type": "Point", "coordinates": [ 19.002483851571004, 47.499032852992862 ] } },
{ "type": "Feature", "properties": { "city": null, "address": null, "email": null, "count": "pitch", "name": null, "description": null, "surface": null, "access": null, "website": null, "phone": null, "opening_hours": null }, "geometry": { "type": "Point", "coordinates": [ 18.972530962038761, 47.500701751961401 ] } },
{ "type": "Feature", "properties": { "city": "Budapest XI. kerület", "address": "1121 Budapest XII. kerület Törökbálinti út 51-53.\n", "email": "info@sasclubhotel.hu\n", "count": "3", "name": "Sas Club Teniszcentrum\n", "description": "-", "surface": "salak", "access": "publikus", "website": "-", "phone": "+36-1/246-6512, +36-20/962-4771\n", "opening_hours": "H-V: 6-22\n" }, "geometry": { "type": "Point", "coordinates": [ 18.98940015, 47.47796305 ] } },
{ "type": "Feature", "properties": { "city": null, "address": null, "email": null, "count": "pitch", "name": null, "description": null, "surface": null, "access": null, "website": null, "phone": null, "opening_hours": null }, "geometry": { "type": "Point", "coordinates": [ 18.95291595, 47.486776399999989 ] } },
{ "type": "Feature", "properties": { "city": null, "address": null, "email": null, "count": "pitch", "name": null, "description": null, "surface": null, "access": null, "website": null, "phone": null, "opening_hours": null }, "geometry": { "type": "Point", "coordinates": [ 18.953837633487566, 47.486446784118378 ] } },
{ "type": "Feature", "properties": { "city": null, "address": null, "email": null, "count": "pitch", "name": null, "description": null, "surface": null, "access": null, "website": null, "phone": null, "opening_hours": null }, "geometry": { "type": "Point", "coordinates": [ 19.001027889512589, 47.502343613347314 ] } },
{ "type": "Feature", "properties": { "city": null, "address": null, "email": null, "count": "pitch", "name": null, "description": null, "surface": null, "access": null, "website": null, "phone": null, "opening_hours": null }, "geometry": { "type": "Point", "coordinates": [ 18.993595419794012, 47.499195298594302 ] } },
{ "type": "Feature", "properties": { "city": null, "address": null, "email": null, "count": "pitch", "name": null, "description": null, "surface": null, "access": null, "website": null, "phone": null, "opening_hours": null }, "geometry": { "type": "Point", "coordinates": [ 18.994742108778905, 47.494676839230273 ] } },
{ "type": "Feature", "properties": { "city": "Budapest XII. kerület", "address": "1126 Budapest XII. kerület Mártonhegyi u. 23.\n", "email": "varga.tenisz.hu@gmail.com\n", "count": "4", "name": "Mártonhegyi Tenisz Club\n", "description": "-", "surface": "salak", "access": "publikus", "website": "-", "phone": "+36-30/273-8625, +36-30/941-2435, +36-30/231-8755,\n", "opening_hours": "H-V: 7-22\n" }, "geometry": { "type": "Point", "coordinates": [ 18.997463263910959, 47.490602531895078 ] } },
{ "type": "Feature", "properties": { "city": null, "address": null, "email": null, "count": "pitch", "name": null, "description": null, "surface": null, "access": null, "website": null, "phone": null, "opening_hours": null }, "geometry": { "type": "Point", "coordinates": [ 18.983327673311184, 47.480044672033998 ] } },
{ "type": "Feature", "properties": { "city": null, "address": null, "email": null, "count": "pitch", "name": null, "description": null, "surface": null, "access": null, "website": null, "phone": null, "opening_hours": null }, "geometry": { "type": "Point", "coordinates": [ 18.98747645, 47.4793765 ] } },
{ "type": "Feature", "properties": { "city": null, "address": null, "email": null, "count": "pitch", "name": null, "description": null, "surface": null, "access": "no", "website": null, "phone": null, "opening_hours": null }, "geometry": { "type": "Point", "coordinates": [ 18.98657645, 47.48065215 ] } },
{ "type": "Feature", "properties": { "city": null, "address": null, "email": null, "count": "pitch", "name": null, "description": null, "surface": null, "access": null, "website": null, "phone": null, "opening_hours": null }, "geometry": { "type": "Point", "coordinates": [ 18.987700871279145, 47.487597736884425 ] } },
{ "type": "Feature", "properties": { "city": null, "address": null, "email": null, "count": "pitch", "name": null, "description": null, "surface": null, "access": "private", "website": null, "phone": null, "opening_hours": null }, "geometry": { "type": "Point", "coordinates": [ 19.002368816432309, 47.542980607344028 ] } },
{ "type": "Feature", "properties": { "city": null, "address": null, "email": null, "count": "pitch", "name": null, "description": null, "surface": null, "access": "private", "website": null, "phone": null, "opening_hours": null }, "geometry": { "type": "Point", "coordinates": [ 18.97075275, 47.48375765 ] } },
{ "type": "Feature", "properties": { "city": null, "address": null, "email": null, "count": "pitch", "name": null, "description": null, "surface": "clay", "access": null, "website": null, "phone": null, "opening_hours": null }, "geometry": { "type": "Point", "coordinates": [ 19.037381824657597, 47.461160680159566 ] } },
{ "type": "Feature", "properties": { "city": null, "address": null, "email": null, "count": "pitch", "name": null, "description": null, "surface": null, "access": null, "website": null, "phone": null, "opening_hours": null }, "geometry": { "type": "Point", "coordinates": [ 18.9715992, 47.534014049999989 ] } },
{ "type": "Feature", "properties": { "city": "Budapest XX. kerület", "address": "1203 Budapest XX. kerület Közműhelytelep u. 21.\n", "email": "europetenniscenter@gmail.com\n", "count": "9", "name": "Europe Tennis Center\n", "description": "4200-5400 Ft/óra", "surface": "salak", "access": "publikus", "website": "http://europetenniscenter.hu/", "phone": "+36-70/327-9222, +36-1/283-1042\n", "opening_hours": "H-V: 6-22\n" }, "geometry": { "type": "Point", "coordinates": [ 19.095565806300566, 47.433957628219652 ] } },
{ "type": "Feature", "properties": { "city": null, "address": null, "email": null, "count": "pitch", "name": null, "description": null, "surface": null, "access": null, "website": null, "phone": null, "opening_hours": null }, "geometry": { "type": "Point", "coordinates": [ 19.01464285, 47.53604055 ] } },
{ "type": "Feature", "properties": { "city": "Budapest XVII. kerület", "address": "1171 Budapest XVII. kerület Péceli út 144.\n", "email": "steve_first@yahoo.com\n", "count": "7", "name": "Rákosmenti Tenisz Klub\n", "description": "-", "surface": "salak", "access": "publikus", "website": "http://stevetennis.hu/", "phone": "+36-20/431-8207\n", "opening_hours": "H-V: 7-20\n" }, "geometry": { "type": "Point", "coordinates": [ 19.27534342069649, 47.485971602509949 ] } },
{ "type": "Feature", "properties": { "city": "Budapest III. kerület", "address": "1039 Budapest III. kerület Királyok útja 301.\n", "email": "noehotel@externet.hu\n", "count": "3", "name": "Hotel Noé teniszpályák\n", "description": "-", "surface": "salak", "access": "publikus", "website": "http://www.noehotel.hu/weblap/tanfolyamok/index.html", "phone": "+36-1/454-0742\n", "opening_hours": "H-V 8-22\n" }, "geometry": { "type": "Point", "coordinates": [ 19.070129188148091, 47.605203154921803 ] } },
{ "type": "Feature", "properties": { "city": null, "address": null, "email": null, "count": "pitch", "name": null, "description": null, "surface": null, "access": null, "website": null, "phone": null, "opening_hours": null }, "geometry": { "type": "Point", "coordinates": [ 19.066849977050346, 47.587797102702176 ] } },
{ "type": "Feature", "properties": { "city": "Budapest X. kerület", "address": "1107 Budapest X. kerület Zágrábi utca 14.\n", "email": "sportkozpont@semmelweis-univ.hu\n", "count": "3", "name": "Semmelweis Egyetem Sportközpont\n", "description": "1200-2400 Ft/óra", "surface": "vegyes", "access": "publikus", "website": "https://semmelweis.hu/sportkozpont/", "phone": "+36-20/825-0611, +36-20/825-0667\n", "opening_hours": "H-V: 6-22\n" }, "geometry": { "type": "Point", "coordinates": [ 19.123428681320345, 47.468971283419343 ] } },
{ "type": "Feature", "properties": { "city": null, "address": null, "email": null, "count": "pitch", "name": null, "description": null, "surface": null, "access": null, "website": null, "phone": null, "opening_hours": null }, "geometry": { "type": "Point", "coordinates": [ 19.1221237, 47.4711249 ] } },
{ "type": "Feature", "properties": { "city": null, "address": null, "email": null, "count": "pitch", "name": null, "description": null, "surface": "clay", "access": null, "website": null, "phone": null, "opening_hours": null }, "geometry": { "type": "Point", "coordinates": [ 19.064005672969671, 47.571890839455513 ] } },
{ "type": "Feature", "properties": { "city": null, "address": null, "email": null, "count": "pitch", "name": null, "description": null, "surface": null, "access": null, "website": null, "phone": null, "opening_hours": null }, "geometry": { "type": "Point", "coordinates": [ 19.130024914914909, 47.470071331248498 ] } },
{ "type": "Feature", "properties": { "city": null, "address": null, "email": null, "count": "pitch", "name": null, "description": null, "surface": null, "access": null, "website": null, "phone": null, "opening_hours": null }, "geometry": { "type": "Point", "coordinates": [ 19.005252724211008, 47.581450626279484 ] } },
{ "type": "Feature", "properties": { "city": null, "address": null, "email": null, "count": "pitch", "name": null, "description": null, "surface": null, "access": null, "website": null, "phone": null, "opening_hours": null }, "geometry": { "type": "Point", "coordinates": [ 19.074444796795255, 47.522031661300531 ] } },
{ "type": "Feature", "properties": { "city": null, "address": null, "email": null, "count": "pitch", "name": null, "description": null, "surface": null, "access": null, "website": null, "phone": null, "opening_hours": null }, "geometry": { "type": "Point", "coordinates": [ 19.053612433558083, 47.591859687806156 ] } },
{ "type": "Feature", "properties": { "city": null, "address": null, "email": null, "count": "pitch", "name": null, "description": null, "surface": null, "access": null, "website": null, "phone": null, "opening_hours": null }, "geometry": { "type": "Point", "coordinates": [ 19.065934196406893, 47.587142475156128 ] } },
{ "type": "Feature", "properties": { "city": null, "address": null, "email": null, "count": "pitch", "name": null, "description": null, "surface": null, "access": null, "website": null, "phone": null, "opening_hours": null }, "geometry": { "type": "Point", "coordinates": [ 19.06418065, 47.57898155 ] } },
{ "type": "Feature", "properties": { "city": null, "address": null, "email": null, "count": "pitch", "name": null, "description": null, "surface": null, "access": null, "website": null, "phone": null, "opening_hours": null }, "geometry": { "type": "Point", "coordinates": [ 19.064704677445643, 47.575334630136304 ] } },
{ "type": "Feature", "properties": { "city": null, "address": null, "email": null, "count": "pitch", "name": null, "description": null, "surface": null, "access": null, "website": null, "phone": null, "opening_hours": null }, "geometry": { "type": "Point", "coordinates": [ 19.064695395313269, 47.574744468186317 ] } },
{ "type": "Feature", "properties": { "city": null, "address": null, "email": null, "count": "pitch", "name": null, "description": null, "surface": null, "access": null, "website": null, "phone": null, "opening_hours": null }, "geometry": { "type": "Point", "coordinates": [ 19.137174033258514, 47.531714018176359 ] } },
{ "type": "Feature", "properties": { "city": "Budapest XXI. kerület", "address": "1214 Budapest XXI. kerület Weiss Manfréd utca 5-7.\n", "email": "torotenisz@gmail.com\n", "count": "5", "name": "Toro Sportegyesület\n", "description": "-", "surface": "salak", "access": "publikus", "website": "https://www.facebook.com/toro.tenisz", "phone": "+36-30/974-4626\n", "opening_hours": "H-V: 8-20\n" }, "geometry": { "type": "Point", "coordinates": [ 19.075627681323077, 47.443700581175335 ] } },
{ "type": "Feature", "properties": { "city": "Budapest XI. kerület", "address": "1115 Budapest XI. kerület Bártfai utca 52/b\n", "email": "ujbudasc@gmail.com\n", "count": "5", "name": "Újbuda Sportcentrum, Bikás park\n", "description": "2700-3500 Ft/óra", "surface": "salak", "access": "publikus", "website": "https://sport.ujbuda.hu/sport/ujbudai-sportcentrum", "phone": "+36-70/633-9515, +36-70/633-9515, +36-70/458-2118, +36-70/978-4190, +36-70/949-2616\n", "opening_hours": "H-V 7-22\n" }, "geometry": { "type": "Point", "coordinates": [ 19.03169545, 47.46703035 ] } },
{ "type": "Feature", "properties": { "city": null, "address": null, "email": null, "count": "pitch", "name": null, "description": null, "surface": null, "access": null, "website": null, "phone": null, "opening_hours": null }, "geometry": { "type": "Point", "coordinates": [ 19.0487846, 47.62294965 ] } },
{ "type": "Feature", "properties": { "city": null, "address": null, "email": null, "count": "pitch", "name": null, "description": null, "surface": null, "access": null, "website": null, "phone": null, "opening_hours": null }, "geometry": { "type": "Point", "coordinates": [ 19.072128732116997, 47.606437645827981 ] } },
{ "type": "Feature", "properties": { "city": "Budapest XI. kerület", "address": "1112 Budapest XI. kerület Rupphegyi út-Törökbálinti út\n", "email": "biro.karoly@teniszpark.hu, tarcus@freestart.hu\n", "count": "3", "name": "Rupphegyi Teniszcentrum\n", "description": "3000-6000 Ft/óra", "surface": "salak", "access": "publikus", "website": "http://teniszpark.hu/", "phone": "+36-20/962-4771\n", "opening_hours": "H-V: 6-22\n" }, "geometry": { "type": "Point", "coordinates": [ 18.981514346512164, 47.471892084873645 ] } },
{ "type": "Feature", "properties": { "city": null, "address": null, "email": null, "count": "pitch", "name": null, "description": null, "surface": null, "access": "private", "website": null, "phone": null, "opening_hours": null }, "geometry": { "type": "Point", "coordinates": [ 18.986658662197716, 47.475436817683352 ] } },
{ "type": "Feature", "properties": { "city": "Budapest XXIII. kerület", "address": "1238 Budapest XXIII. kerület Homokszem u. 5/b.\n", "email": "info@soritenisz.hu\n", "count": "7", "name": "Soroksári Tenisztanoda\n", "description": "-", "surface": "salak", "access": "publikus", "website": "https://www.facebook.com/Soroks%C3%A1ri-Tenisztanoda-224030017633370/", "phone": "+36-20/444-5400, +36-20/961-5970\n", "opening_hours": "H-V: 7-21\n" }, "geometry": { "type": "Point", "coordinates": [ 19.113317547213914, 47.414491083773676 ] } },
{ "type": "Feature", "properties": { "city": null, "address": null, "email": null, "count": "pitch", "name": null, "description": null, "surface": null, "access": null, "website": null, "phone": null, "opening_hours": null }, "geometry": { "type": "Point", "coordinates": [ 19.01978135, 47.50917705 ] } },
{ "type": "Feature", "properties": { "city": null, "address": null, "email": null, "count": "pitch", "name": null, "description": null, "surface": "clay", "access": null, "website": null, "phone": null, "opening_hours": null }, "geometry": { "type": "Point", "coordinates": [ 19.00359365, 47.52689980000001 ] } },
{ "type": "Feature", "properties": { "city": null, "address": null, "email": null, "count": "pitch", "name": null, "description": null, "surface": null, "access": null, "website": null, "phone": null, "opening_hours": null }, "geometry": { "type": "Point", "coordinates": [ 19.1672748, 47.51456805 ] } },
{ "type": "Feature", "properties": { "city": "Budapest XVIII. kerület", "address": "Thököly u. 5.", "email": "info@akademiatenisz.hu", "count": "6", "name": "AkadémiaTenisz Klub\n", "description": "1500-4500 Ft/óra", "surface": "salak", "access": "publikus", "website": "http://akademiatenisz.hu/", "phone": "-", "opening_hours": "H-P: 8-22 Sz-V: 8-20" }, "geometry": { "type": "Point", "coordinates": [ 19.185346152488851, 47.44650116746881 ] } },
{ "type": "Feature", "properties": { "city": "Budapest X. kerület", "address": "1103 Budapest X. kerület Kőér u. 1/a.\n", "email": "psetenisz.szakovh@penzugyorse.hu\n", "count": "15", "name": "Pénzügyőr pályák\n", "description": "-", "surface": "salak", "access": "publikus", "website": "https://www.penzugyorse.hu/koer-utcai-sporttelep/", "phone": "+36-1/264-5452\n", "opening_hours": "H-V: 6-20\n" }, "geometry": { "type": "Point", "coordinates": [ 19.130691908342424, 47.467331267843775 ] } },
{ "type": "Feature", "properties": { "city": null, "address": null, "email": null, "count": "pitch", "name": null, "description": null, "surface": null, "access": null, "website": null, "phone": null, "opening_hours": null }, "geometry": { "type": "Point", "coordinates": [ 19.041779583394206, 47.487089222703169 ] } },
{ "type": "Feature", "properties": { "city": "Budapest XI. kerület", "address": "1112 Budapest XI. kerület Őrmezői u. 19. (másik bejárat: Mikes Kelemen u.20.)\n", "email": "dancstomi@yahoo.com\n", "count": "5\n", "name": "Ász Tenisz Sport Klub, Őrmező\n", "description": "-", "surface": "salak", "access": "publikus", "website": "https://www.facebook.com/asztenisz/", "phone": "+36-30/522-8588\n", "opening_hours": "H-P: 6-22, Szo-V: 6-20\n" }, "geometry": { "type": "Point", "coordinates": [ 19.015743628118003, 47.456846841772041 ] } },
{ "type": "Feature", "properties": { "city": "Budapest II. kerület", "address": "1023 Budapest II. kerület Vérhalom u. 12-16.\n", "email": "verhalomlakopark@gmail.com\n", "count": "pitch", "name": "Vérhalom lakópark\n", "description": "-", "surface": "salak", "access": "publikus", "website": "-", "phone": "+36-30/954-0678\n", "opening_hours": "8-20\n" }, "geometry": { "type": "Point", "coordinates": [ 19.02943745, 47.51945925 ] } },
{ "type": "Feature", "properties": { "city": null, "address": null, "email": null, "count": "pitch", "name": null, "description": null, "surface": null, "access": null, "website": null, "phone": null, "opening_hours": null }, "geometry": { "type": "Point", "coordinates": [ 18.983595198041979, 47.441987982795084 ] } },
{ "type": "Feature", "properties": { "city": "Budapest XI. kerület", "address": "1119 Budapest XI. kerület Mérnök utca 35.\n", "email": "mernok@eltesport.hu\n", "count": "4", "name": "Mérnök utca egyetemi pályák\n", "description": "-", "surface": "salak", "access": "publikus", "website": "https://www.eltesport.hu/sporttelepeink/mernok-utca", "phone": "+36-1/206-5390; +36-20/281-4542\n", "opening_hours": "H-P: 7-22, Szo-Vas: 8-20\n" }, "geometry": { "type": "Point", "coordinates": [ 19.040631028203343, 47.464888339149283 ] } },
{ "type": "Feature", "properties": { "city": null, "address": null, "email": null, "count": "pitch", "name": null, "description": null, "surface": "clay", "access": null, "website": null, "phone": null, "opening_hours": null }, "geometry": { "type": "Point", "coordinates": [ 19.000926120386243, 47.549528663071946 ] } },
{ "type": "Feature", "properties": { "city": null, "address": null, "email": null, "count": "pitch", "name": null, "description": null, "surface": "clay", "access": null, "website": null, "phone": null, "opening_hours": null }, "geometry": { "type": "Point", "coordinates": [ 18.979128492473077, 47.469852486089785 ] } },
{ "type": "Feature", "properties": { "city": null, "address": null, "email": null, "count": "pitch", "name": null, "description": null, "surface": "clay", "access": null, "website": null, "phone": null, "opening_hours": null }, "geometry": { "type": "Point", "coordinates": [ 18.980552968970436, 47.46781490943394 ] } },
{ "type": "Feature", "properties": { "city": "Budapest III. kerület", "address": "1037 Budapest III. kerület Folyondár u. 15.\n", "email": "a.david@folyondar.hu, info@folyondar.hu, k.zoltan@folyondar.hu, l.markovits@vasassc.hu\nNULL", "count": "8", "name": "Folyondár Sportközpont\n", "description": "4400-8000 Ft/óra", "surface": "salak", "access": "publikus", "website": "http://folyondar.hu/hu/tenisz-2/", "phone": "+36-1/244-8850,  +36-70/967-1678, +36-70/377-953, +36-30/689-2840,\n", "opening_hours": "H-P 7-22, Szo-V: 8-20\n" }, "geometry": { "type": "Point", "coordinates": [ 19.030731234068604, 47.534083970594359 ] } },
{ "type": "Feature", "properties": { "city": null, "address": null, "email": null, "count": "pitch", "name": null, "description": null, "surface": "clay", "access": null, "website": null, "phone": null, "opening_hours": null }, "geometry": { "type": "Point", "coordinates": [ 19.029843414444134, 47.517087383288086 ] } },
{ "type": "Feature", "properties": { "city": null, "address": null, "email": null, "count": "pitch", "name": null, "description": null, "surface": null, "access": null, "website": null, "phone": null, "opening_hours": null }, "geometry": { "type": "Point", "coordinates": [ 19.04754428164247, 47.521271103103054 ] } },
{ "type": "Feature", "properties": { "city": "Budapest XXIII. kerület", "address": "1237 Budapest XXIII. kerület Vizisport utca 37.\n", "email": "-", "count": "2", "name": "Vízisport utcai magánpálya", "description": "-", "surface": "salak", "access": "egyeztetést igényel", "website": "-", "phone": "+36-20/379-0711\n", "opening_hours": "H-V: 8-20\n" }, "geometry": { "type": "Point", "coordinates": [ 19.09302757119567, 47.42925340454827 ] } },
{ "type": "Feature", "properties": { "city": null, "address": null, "email": null, "count": "sports_centre", "name": null, "description": null, "surface": null, "access": null, "website": null, "phone": null, "opening_hours": null }, "geometry": { "type": "Point", "coordinates": [ 19.002487419845, 47.41520917485974 ] } },
{ "type": "Feature", "properties": { "city": "Budapest XIII. kerület", "address": "Tatai út 79-85.", "email": "bvsc.tataiut@gmail.com", "count": "4", "name": "BVSC tenisz Angyalföld", "description": "-", "surface": "salak", "access": "publikus", "website": "https://www.bvsc.hu/teniszpalya", "phone": "0670 299 9886 0630 931 8635", "opening_hours": "7-22" }, "geometry": { "type": "Point", "coordinates": [ 19.093310672841199, 47.537008493700029 ] } },
{ "type": "Feature", "properties": { "city": "Budapest XIV. kerület", "address": "1142 Budapest XIV. kerület Tatai u. 3/b.\n", "email": "buthferenc@gmail.com\n", "count": "10", "name": "BVSC-Zugló tenisztelep\n", "description": "-", "surface": "salak", "access": "publikus", "website": "-", "phone": "+36-1/273-1427, +36-30/931-8635, +36-70/299-9886\n", "opening_hours": "H-V: 6-22\n" }, "geometry": { "type": "Point", "coordinates": [ 19.088391779585724, 47.529128401021332 ] } },
{ "type": "Feature", "properties": { "city": "Budapest XIX. kerület", "address": "1194 Budapest XIX. kerület Katona József utca 3.\n", "email": "info@sport.kispest.hu\n", "count": "4", "name": "Kispesti Atlétikai Club\n", "description": "-", "surface": "salak", "access": "publikus", "website": "http://sporttelep.kispest.hu/", "phone": "+36-20/326-0206, +36-1/281-1124, +36-1/282-1588, +36-1/226-0359\n", "opening_hours": "H-V: 8-20\n" }, "geometry": { "type": "Point", "coordinates": [ 19.149927612088373, 47.43658094346722 ] } },
{ "type": "Feature", "properties": { "city": null, "address": null, "email": null, "count": "pitch", "name": null, "description": null, "surface": null, "access": "private", "website": null, "phone": null, "opening_hours": null }, "geometry": { "type": "Point", "coordinates": [ 19.00824016428345, 47.51984520247165 ] } },
{ "type": "Feature", "properties": { "city": "Budapest XI. kerület", "address": "1117 Budapest XI. kerület Hauszmann Alajos u. 5.\n", "email": "sport@ujbuda.hu, madaras.agnes@sport.ujbuda.hu\n", "count": "8", "name": "Gabányi László sporttelep\n", "description": "-", "surface": "salak", "access": "publikus", "website": "https://sport.ujbuda.hu/sport/gabanyi-laszlo-sporttelep-1", "phone": "+36-20/429-3904\n", "opening_hours": "H-V: 6-22\n" }, "geometry": { "type": "Point", "coordinates": [ 19.048371048364974, 47.465862409547519 ] } },
{ "type": "Feature", "properties": { "city": null, "address": null, "email": null, "count": "pitch", "name": null, "description": null, "surface": "clay", "access": null, "website": null, "phone": null, "opening_hours": null }, "geometry": { "type": "Point", "coordinates": [ 19.161368384623866, 47.474890554063549 ] } },
{ "type": "Feature", "properties": { "city": "Budapest IV. kerület", "address": "1046, Budapest, Tábor u. 16-18", "email": "titkarsag@ute.hu", "count": "2", "name": "UTE Teniszpályák", "description": "1600-2000 Ft/óra", "surface": "salak", "access": "publikus", "website": "https://klub.ute.hu/hirek/UTE-Teniszpalyak-Hasznalati-Rendje%21-3128", "phone": "06-1-272-1272 vagy 06-20-379-52-46", "opening_hours": "6-22" }, "geometry": { "type": "Point", "coordinates": [ 19.106182236966028, 47.574133189447899 ] } },
{ "type": "Feature", "properties": { "city": "Budapest IV. kerület", "address": "1046, Budapest, Tábor u. 16-18", "email": "titkarsag@ute.hu", "count": "4", "name": "UTE Teniszpályák", "description": "1600-2000 Ft/óra", "surface": "salak", "access": "publikus", "website": "https://klub.ute.hu/hirek/UTE-Teniszpalyak-Hasznalati-Rendje%21-3128", "phone": "06-1-272-1272 vagy 06-20-379-52-46", "opening_hours": "6-22" }, "geometry": { "type": "Point", "coordinates": [ 19.107828277124266, 47.573390630314456 ] } },
{ "type": "Feature", "properties": { "city": "Budapest XVIII. kerület", "address": "1181 Budapest XVIII. kerület Bókay kert\n", "email": "info@gilicetenisz.hu\n", "count": "4", "name": "Gilice Tenisz Suli", "description": "Magánórák", "surface": "salak", "access": "publikus", "website": "https://gilicetenisz.hu/", "phone": "+36 30 454 7748\n", "opening_hours": "H-P: 7-21 Szo: 7-14" }, "geometry": { "type": "Point", "coordinates": [ 19.1828841, 47.4315336 ] } },
{ "type": "Feature", "properties": { "city": null, "address": null, "email": null, "count": "pitch", "name": null, "description": null, "surface": null, "access": null, "website": null, "phone": null, "opening_hours": null }, "geometry": { "type": "Point", "coordinates": [ 19.151974984589653, 47.471784257408281 ] } },
{ "type": "Feature", "properties": { "city": "Budapest X. kerület", "address": "1106 Budapest X. kerület Maglódi út 12/b.\n", "email": "blaskog@freemail.hu\n", "count": "3", "name": "Merkapt Maraton Sportközpont\n", "description": "-", "surface": "salak", "access": "publikus", "website": "-", "phone": "+36-30/352-1052\n", "opening_hours": "H-V 8-20\n" }, "geometry": { "type": "Point", "coordinates": [ 19.157861714592993, 47.485053296378766 ] } },
{ "type": "Feature", "properties": { "city": "Budapest VIII. kerület", "address": "1083 Budapest, Ludovika tér 2.", "email": "http://sportiroda@uni-nke.hu/", "count": "4", "name": "Nemzeti Közszolgálati Egyetem Szabadtéri Sportpálya", "description": "-", "surface": "salak", "access": "publikus", "website": "https://sportosegyetem.uni-nke.hu/", "phone": "-", "opening_hours": "?" }, "geometry": { "type": "Point", "coordinates": [ 19.089677957937656, 47.48377270049879 ] } },
{ "type": "Feature", "properties": { "city": "Budapest II. kerület", "address": "1028 Budapest II. kerület Szabadság utca 51-57.\n", "email": "palyafoglalas@pokornysportkozpont.hu, klebi@klebelsberg.sulinet.hu\n", "count": "salak", "name": "Pokorny József Sport és Szabadidőközpont\n", "description": "-", "surface": "salak", "access": "publikus", "website": "https://www.masodikkeruletsport.hu/pokorny-jozsef-sport-es-szabadidokozpont/", "phone": "+36-20/282-3346, +36-1/974-569, +36-1/391-6920\n", "opening_hours": "7-22" }, "geometry": { "type": "Point", "coordinates": [ 18.95245435, 47.56343155 ] } },
{ "type": "Feature", "properties": { "city": null, "address": null, "email": null, "count": "pitch", "name": null, "description": null, "surface": "clay", "access": null, "website": null, "phone": null, "opening_hours": null }, "geometry": { "type": "Point", "coordinates": [ 19.00069935, 47.54958275 ] } },
{ "type": "Feature", "properties": { "city": null, "address": null, "email": null, "count": "pitch", "name": null, "description": null, "surface": null, "access": null, "website": null, "phone": null, "opening_hours": null }, "geometry": { "type": "Point", "coordinates": [ 18.97130670336357, 47.534938465515374 ] } },
{ "type": "Feature", "properties": { "city": "Budapest XVI. kerület", "address": "1162 Budapest XVI. kerület Csömöri u. 158.\n", "email": "metrorsc@t-online.hu\n", "count": "15", "name": "Metro pályák\n", "description": "1300-4000 Ft/óra", "surface": "salak", "access": "publikus", "website": "https://www.metrotenisz.hu/", "phone": "+36-30/332-0200, +36-1/406-5584, +36-30/742-0480, +36-70/621-5493\n", "opening_hours": "6-22" }, "geometry": { "type": "Point", "coordinates": [ 19.167843305148295, 47.529315066264353 ] } },
{ "type": "Feature", "properties": { "city": null, "address": null, "email": null, "count": "pitch", "name": null, "description": null, "surface": "clay", "access": null, "website": null, "phone": null, "opening_hours": null }, "geometry": { "type": "Point", "coordinates": [ 18.986657618997839, 47.475437052366189 ] } },
{ "type": "Feature", "properties": { "city": null, "address": null, "email": null, "count": "pitch", "name": null, "description": null, "surface": null, "access": null, "website": null, "phone": null, "opening_hours": null }, "geometry": { "type": "Point", "coordinates": [ 19.1102078, 47.49688565 ] } },
{ "type": "Feature", "properties": { "city": "Budapest II. kerület", "address": "1026 Budapest II. kerület Pasaréti út 124-126.\n", "email": "horvath.lajos@nav.gov.hu\n", "count": "4", "name": "Pénzügyőr sporttelep\n", "description": "-", "surface": "salak", "access": "publikus", "website": "https://www.penzugyorse.hu/pasareti-uti-sporttelep/", "phone": "+36-30/919-4029, +36-20/325-6560\n", "opening_hours": "?" }, "geometry": { "type": "Point", "coordinates": [ 18.987924222567205, 47.5251124032146 ] } },
{ "type": "Feature", "properties": { "city": null, "address": null, "email": null, "count": "pitch", "name": null, "description": null, "surface": "clay", "access": null, "website": null, "phone": null, "opening_hours": null }, "geometry": { "type": "Point", "coordinates": [ 19.143725335552126, 47.483817353798742 ] } },
{ "type": "Feature", "properties": { "city": "Budapest XIII. kerület", "address": "Lomb u. 45", "email": "kaprosattila@yahoo.com\n", "count": "3", "name": "Patak Party Tenisz Club", "description": "1800-5000 Ft/óra", "surface": "salak", "access": "publikus", "website": "http://www.patakpartyteniszklub.hu/", "phone": "+3630 611 6112", "opening_hours": "7-22" }, "geometry": { "type": "Point", "coordinates": [ 19.074311170964197, 47.542061206917168 ] } },
{ "type": "Feature", "properties": { "city": "Budapest XII. kerület", "address": "1122 Budapest XII. kerület Tóth Lőrinc utca 6.\n", "email": "info@info.com\n", "count": "2", "name": "Magyar Igazságügyi Akadémia\n", "description": "-", "surface": "salak", "access": "publikus", "website": "https://birosag.hu/orszagos-birosagi-hivatal-0/magyar-igazsagugyi-akademia", "phone": "+36-1/212-3690, +36-1/487-6700\n", "opening_hours": "H-V: 7-19\n" }, "geometry": { "type": "Point", "coordinates": [ 19.0197173, 47.4991183 ] } },
{ "type": "Feature", "properties": { "city": null, "address": null, "email": null, "count": "pitch", "name": null, "description": null, "surface": "clay", "access": null, "website": null, "phone": null, "opening_hours": null }, "geometry": { "type": "Point", "coordinates": [ 19.072733676391788, 47.43763460242667 ] } },
{ "type": "Feature", "properties": { "city": null, "address": null, "email": null, "count": "pitch", "name": null, "description": null, "surface": null, "access": null, "website": null, "phone": null, "opening_hours": null }, "geometry": { "type": "Point", "coordinates": [ 19.045646813575544, 47.526672332581086 ] } },
{ "type": "Feature", "properties": { "city": null, "address": null, "email": null, "count": "pitch", "name": null, "description": null, "surface": null, "access": null, "website": null, "phone": null, "opening_hours": null }, "geometry": { "type": "Point", "coordinates": [ 18.983459472807411, 47.535433732122812 ] } },
{ "type": "Feature", "properties": { "city": null, "address": null, "email": null, "count": "pitch", "name": null, "description": null, "surface": null, "access": null, "website": null, "phone": null, "opening_hours": null }, "geometry": { "type": "Point", "coordinates": [ 18.9554565, 47.5655206 ] } },
{ "type": "Feature", "properties": { "city": "Budapest II. kerület", "address": "1020 Budapest II. kerület Zuhany u.\n", "email": "palya@teniszterasz.hu\n", "count": "3", "name": "Tenisz Terasz\n", "description": "2500-3500 Ft/óra", "surface": "salak", "access": "publikus", "website": "http://teniszterasz.hu/", "phone": "+36309827723", "opening_hours": "H-P 6-22, Szo 7-20, V 8-20\n" }, "geometry": { "type": "Point", "coordinates": [ 19.011610823950218, 47.527181037030466 ] } },
{ "type": "Feature", "properties": { "city": null, "address": null, "email": null, "count": "pitch", "name": null, "description": null, "surface": null, "access": null, "website": null, "phone": null, "opening_hours": null }, "geometry": { "type": "Point", "coordinates": [ 19.16814805, 47.467009 ] } },
{ "type": "Feature", "properties": { "city": null, "address": null, "email": null, "count": "pitch", "name": null, "description": null, "surface": "artificial_turf", "access": null, "website": null, "phone": null, "opening_hours": null }, "geometry": { "type": "Point", "coordinates": [ 19.028178163563741, 47.462525122206472 ] } },
{ "type": "Feature", "properties": { "city": "Budapest XVIII. kerület", "address": "1185 Budapest XVIII. kerület Üllői út 841.\n", "email": "tenisz@uvjinvest.hu\n", "count": "6", "name": "Gubacsi Zsófi Teniszklub\n", "description": "4500 Ft/óra", "surface": "salak", "access": "publikus", "website": "https://www.gubacsizsofi-teniszklub.hu/", "phone": "+36-20/314-7553, +36-30/376-9149\n", "opening_hours": "H-V: 7-22\n" }, "geometry": { "type": "Point", "coordinates": [ 19.237523305347686, 47.421242837363266 ] } },
{ "type": "Feature", "properties": { "city": "Budapest XIX. kerület", "address": "1192 Budapest XIX. kerület Zoltán u. 42.\n", "email": "zoltansport@gmail.com\n", "count": "10", "name": "Wekerlei Sport- és Szabadidőközpont\n", "description": "4500-5800 Ft/óra", "surface": "salak", "access": "publikus", "website": "http://www.wekerletenisz.hu/", "phone": "+36-30/996-0290, +36-1/282-1588\n", "opening_hours": "8-20" }, "geometry": { "type": "Point", "coordinates": [ 19.128787005511484, 47.451863305512546 ] } },
{ "type": "Feature", "properties": { "city": null, "address": null, "email": null, "count": "pitch", "name": null, "description": null, "surface": null, "access": "private", "website": null, "phone": null, "opening_hours": null }, "geometry": { "type": "Point", "coordinates": [ 19.013249019870898, 47.495002065349773 ] } },
{ "type": "Feature", "properties": { "city": "Budapest XI. kerület", "address": "1118 Budapest XI. kerület Budaörsi út 49–53.\n", "email": "sashegy.se@gmail.com\n", "count": "2", "name": "Petőfi laktanya\n", "description": "-", "surface": "salak", "access": "kizárólag belső használat", "website": "-", "phone": "+36-30/815-0931\n", "opening_hours": "H-V: 6-22\n" }, "geometry": { "type": "Point", "coordinates": [ 19.020127783275512, 47.476961559810512 ] } },
{ "type": "Feature", "properties": { "city": null, "address": null, "email": null, "count": "pitch", "name": null, "description": null, "surface": null, "access": null, "website": null, "phone": null, "opening_hours": null }, "geometry": { "type": "Point", "coordinates": [ 19.061847717870481, 47.615371976023262 ] } },
{ "type": "Feature", "properties": { "city": "Budapest III. kerület", "address": "1037 Budapest III. kerület Virág Benedek u. 39-41.\n", "email": "szigetvari.adrienn@szepvolgyi.hu, tenisz@szepvolgyi.hu\n", "count": "6", "name": "Szépvölgyi Teniszcentrum\n", "description": "3800-4600 Ft/óra", "surface": "salak", "access": "publikus", "website": "http://www.szepvolgyi.hu/", "phone": "+3630/998-6969", "opening_hours": "6-22" }, "geometry": { "type": "Point", "coordinates": [ 19.019433971390821, 47.532185417405522 ] } },
{ "type": "Feature", "properties": { "city": null, "address": null, "email": null, "count": "pitch", "name": null, "description": null, "surface": null, "access": null, "website": null, "phone": null, "opening_hours": null }, "geometry": { "type": "Point", "coordinates": [ 19.149633416016691, 47.541792443967736 ] } },
{ "type": "Feature", "properties": { "city": "Budapest III. kerület", "address": "1037 Budapest III. kerület Laborc u. 2.\n", "email": "tenisz@obudasport.hu\n", "count": "4", "name": "Óbudai Tenisz Club\n", "description": "1800-3500 Ft/óra", "surface": "salak", "access": null, "website": "https://obudasport.hu/", "phone": "+36-70/702-3719\n", "opening_hours": "szabadtéri szezon: H-P 7-22, Szo-V: 8-15,  télen: H-P 7-21, Szo-V: 8-15,\n" }, "geometry": { "type": "Point", "coordinates": [ 19.025939496084224, 47.552360892415841 ] } },
{ "type": "Feature", "properties": { "city": "Budapest XIV. kerület", "address": "Szőnyi út 2.", "email": "bvsc.szonyiut@gmail.com", "count": "?", "name": "BVSC Tenisz Zugló", "description": "-", "surface": "salak", "access": "publikus", "website": "https://www.bvsc.hu/teniszpalya", "phone": "0670 299 9886 0630 931 8635", "opening_hours": "7-22" }, "geometry": { "type": "Point", "coordinates": [ 19.090110111744231, 47.523970069942649 ] } },
{ "type": "Feature", "properties": { "city": null, "address": null, "email": null, "count": null, "name": null, "description": null, "surface": null, "access": "private", "website": null, "phone": null, "opening_hours": null }, "geometry": { "type": "Point", "coordinates": [ 19.011742995897663, 47.485890986293981 ] } },
{ "type": "Feature", "properties": { "city": null, "address": null, "email": null, "count": null, "name": null, "description": null, "surface": null, "access": null, "website": null, "phone": null, "opening_hours": null }, "geometry": { "type": "Point", "coordinates": [ 19.0480135, 47.6017864 ] } },
{ "type": "Feature", "properties": { "city": "Budapest II. kerület", "address": "1021 Budapest II. kerület Vadaskerti u 1-3.\n", "email": "info@mesetenisz.hu", "count": "6", "name": "MESE Tenisz", "description": "2800-7300 Ft/óra", "surface": "salak", "access": "publikus", "website": "https://www.mesetenisz.com/", "phone": "+36-70/384-1177, +36-70/384-2720, +36-20/776-6571\n", "opening_hours": "6-22" }, "geometry": { "type": "Point", "coordinates": [ 18.9820517, 47.5333012 ] } },
{ "type": "Feature", "properties": { "city": "Budapest XVI. kerület", "address": "Állás utca 35.", "email": "aarpad@globomax.hu,info@arpadfolditc.hu", "count": "3", "name": "Árpádföldi Tenisz Club\n", "description": "1300-2000 Ft/óra", "surface": "salak", "access": "publikus", "website": "https://arpadfolditc.hu/", "phone": "+36-30/948-0746", "opening_hours": "8-20" }, "geometry": { "type": "Point", "coordinates": [ 19.200254585304084, 47.530885077828621 ] } },
{ "type": "Feature", "properties": { "city": "Budapest II. került", "address": "1022 Budapest II. kerület Marczibányi tér 16.\n", "email": "gy.szilas@marczibanyi.hu\n", "count": "3", "name": "Marczibányi Sportcentrum", "description": "3000-5400 Ft/óra", "surface": "salak", "access": "publikus", "website": "https://marczibanyi.hu/", "phone": "+36-1/336-0777,\n", "opening_hours": "6-22" }, "geometry": { "type": "Point", "coordinates": [ 19.021896682252098, 47.513077858427252 ] } },
{ "type": "Feature", "properties": { "city": "Budapest III. kerület", "address": "1038 Budapest III. kerület Márton u. 25.\n", "email": "emhasport@gmail.com\n", "count": "3", "name": "Külkereskedelmi SC pályák\n", "description": "-", "surface": "salak", "access": "publikus", "website": "-", "phone": "+36-20/506-5640, +36-30/407-9344\n", "opening_hours": "8-20" }, "geometry": { "type": "Point", "coordinates": [ 19.044635875093277, 47.592601031024529 ] } },
{ "type": "Feature", "properties": { "city": "Budapest III. kerület", "address": "1036 Budapest III. kerület Árpád fejedelem útja 125.\n", "email": "gabor@teniszpalya.eu\n", "count": "2", "name": "Rozmaring Tenisz Klub\n", "description": "1900-6200 Fő/óra", "surface": "salak", "access": "publikus", "website": "-", "phone": "+36-30/444-5578; +36-1/240-4042\n", "opening_hours": "H-P: 7–22; Sz, V: 8–21\n" }, "geometry": { "type": "Point", "coordinates": [ 19.044729709707735, 47.533395653964085 ] } },
{ "type": "Feature", "properties": { "city": "Budapest XIV. kerület", "address": "1147 Budapest XV. kerület Szentmihályi út 167-169.\n", "email": "tenisz@freemail.hu\n", "count": "9", "name": "Mini Garros Tenisz Klub\n", "description": "1500-4500 Ft/óra", "surface": "salak", "access": "publikus", "website": "https://minigarrosteniszklub.com", "phone": "+36-1/363-6800\n", "opening_hours": "H-V: 6-22\n" }, "geometry": { "type": "Point", "coordinates": [ 19.149748610307029, 47.550507154049832 ] } },
{ "type": "Feature", "properties": { "city": "Budapest XXI. kerület", "address": "1213 Budapest XXI. kerület Hollandi út 8.\n", "email": "info@varosgazda.eu\n", "count": "2", "name": "Csepeli Sport, Szabadidő és Rendezvény Központ\n", "description": "-", "surface": "salak", "access": "publikus", "website": "-", "phone": "-", "opening_hours": "H-V: 8-20\n" }, "geometry": { "type": "Point", "coordinates": [ 19.09925056781389, 47.411679044106883 ] } },
{ "type": "Feature", "properties": { "city": "Budapest IX. kerület", "address": "1090 Budapest IX. kerület Péceli út 2.\n", "email": "info@info.com\n", "count": "3", "name": "Ferencvárosi Teniszbarátok Köre\n", "description": "-", "surface": "salak", "access": "publikus", "website": "-", "phone": "+36-30/952-1321\n", "opening_hours": "H-V: 8-20\n" }, "geometry": { "type": "Point", "coordinates": [ 19.094436222461873, 47.466958499545697 ] } },
{ "type": "Feature", "properties": { "city": "Budapest XI. kerület", "address": "1118 Budapest XI. kerület Villányi u. 14.\n", "email": "tenisz@flamencotenisz.hu\n", "count": "2", "name": "Flamenco teniszcsarnok\n", "description": "2700 Ft/óra", "surface": "egyéb", "access": "publikus", "website": "https://www.premierpadel.hu/", "phone": "+36-1/209-1670, +36-30/948-0397, +36-30/381-0060\n", "opening_hours": "H-P: 7-22, Szo: 8-18, V: 9-17\n" }, "geometry": { "type": "Point", "coordinates": [ 19.042636178662967, 47.477946024780607 ] } },
{ "type": "Feature", "properties": { "city": "Budapest XVIII. kerület", "address": "1181 Budapest XVIII. kerület Szélmalom u. 33., Bókay kert\n", "email": "yvettehasuly@gmail.com\n", "count": "8", "name": "Golden Ace Sport & Tennis Club\n", "description": "-", "surface": "salak", "access": "publikus", "website": "http://www.gyeresportolni.hu/egyesulet/reszletek/Golden_Ace_Tennis_Club_2", "phone": "+36-70/413-7295, +36-30/874-7324, +36-1/290-2849, 36-70/413-7291\n", "opening_hours": "H-V: 6-22\n" }, "geometry": { "type": "Point", "coordinates": [ 19.177553523185111, 47.435237623886941 ] } },
{ "type": "Feature", "properties": { "city": "Budapest III. kerület", "address": "1039 Budapest III. kerület Királyok útja 301.\n", "email": "noehotel@externet.hu\n", "count": "3", "name": "Hotel Noé teniszpályák\n", "description": "-", "surface": "salak", "access": "publikus", "website": "https://hotel-noe.tourist.info.hu/index_hu.html", "phone": "+36-1/454-0742\n", "opening_hours": "H-V 8-22\n" }, "geometry": { "type": "Point", "coordinates": [ 19.069567615735213, 47.603564290316491 ] } },
{ "type": "Feature", "properties": { "city": "Budapest X. kerület", "address": "1106 Budapest X. kerület Kereszturi u. 7-9.\n", "email": "iskola@keresztury-bp10.sulinet.hu\n", "count": "2", "name": "Keresztúry Dezső Általános Iskola\n", "description": "-", "surface": "salak", "access": "publikus", "website": "http://www.kereszturysuli.shp.hu/hpc/web.php?a=kereszturysuli", "phone": "+36-1/263-0367, +36-1/262-6900\n", "opening_hours": "H-V: 8-20\n" }, "geometry": { "type": "Point", "coordinates": [ 19.152639261261172, 47.50255865422222 ] } },
{ "type": "Feature", "properties": { "city": "Budapest X. kerület", "address": "1107 Budapest X. kerület Bihari út 23.\n", "email": "istvan0503@freemail.hu\n", "count": "2", "name": "Kocsis Sándor Sportközpont\n", "description": "-", "surface": "salak", "access": "publikus", "website": "http://www.kobanyasport.hu/index.htm", "phone": "+36-20/942-2121, +36-1/262-9151, +36 1 920 6403", "opening_hours": "H-V: 6-20\n" }, "geometry": { "type": "Point", "coordinates": [ 19.123301345369239, 47.477814435656327 ] } },
{ "type": "Feature", "properties": { "city": "Budapest III. kerület", "address": "1037 Budapest III. kerület Mikoviny u. 2-4.\n", "email": "info@huntennis.hu, nek@huntennis.hu\n", "count": "10", "name": "Nemzeti Edzésközpont\n", "description": "-", "surface": "salak", "access": "publikus", "website": "https://www.facebook.com/Nemzeti-Edz%C3%A9s-K%C3%B6zpont-1399903296966294", "phone": "+36-1/803-6210, +36-70/375-7000\n", "opening_hours": "H-V 7-22\n" }, "geometry": { "type": "Point", "coordinates": [ 19.031589150543518, 47.533102499209576 ] } }
]
}
